[{"OBJECT_NAME":"SALSAT","OBJECT_ID":"2020-068K","EPOCH":"2026-03-09T22:26:21.804576","MEAN_MOTION":15.28191989,"ECCENTRICITY":0.00082652,"INCLINATION":97.8859,"RA_OF_ASC_NODE":66.0795,"ARG_OF_PERICENTER":295.8051,"MEAN_ANOMALY":64.2334,"EPHEMERIS_TYPE":0,"CLASSIFICATION_TYPE":"U","NORAD_CAT_ID":46495,"ELEMENT_SET_NO":999,"REV_AT_EPOCH":30019,"BSTAR":0.00040842582,"MEAN_MOTION_DOT":0.00011156,"MEAN_MOTION_DDOT":0},{"OBJECT_NAME":"STARLINK-33597","OBJECT_ID":"2025-015F","EPOCH":"2026-03-09T22:20:11.298912","MEAN_MOTION":15.30205109,"ECCENTRICITY":0.00010875,"INCLINATION":53.1587,"RA_OF_ASC_NODE":321.6485,"ARG_OF_PERICENTER":78.5301,"MEAN_ANOMALY":281.5822,"EPHEMERIS_TYPE":0,"CLASSIFICATION_TYPE":"U","NORAD_CAT_ID":62763,"ELEMENT_SET_NO":999,"REV_AT_EPOCH":6451,"BSTAR":0.001206632,"MEAN_MOTION_DOT":0.00035555,"MEAN_MOTION_DDOT":0}]
